[{"OBJECT_NAME":"STARLINK-36827","OBJECT_ID":"2026-036E","EPOCH":"2026-03-02T20:00:01.999008","MEAN_MOTION":15.85618381,"ECCENTRICITY":0.0001642,"INCLINATION":42.9948,"RA_OF_ASC_NODE":291.8064,"ARG_OF_PERICENTER":272.5356,"MEAN_ANOMALY":115.0509,"EPHEMERIS_TYPE":0,"CLASSIFICATION_TYPE":"U","NORAD_CAT_ID":67908,"ELEMENT_SET_NO":999,"REV_AT_EPOCH":254,"BSTAR":-0.0070801,"MEAN_MOTION_DOT":-0.01557418,"MEAN_MOTION_DDOT":0},{"OBJECT_NAME":"STARLINK-36822","OBJECT_ID":"2026-036F","EPOCH":"2026-03-02T20:00:01.999008","MEAN_MOTION":15.858025,"ECCENTRICITY":0.0001742,"INCLINATION":42.9949,"RA_OF_ASC_NODE":291.7977,"ARG_OF_PERICENTER":272.7721,"MEAN_ANOMALY":118.37,"EPHEMERIS_TYPE":0,"CLASSIFICATION_TYPE":"U","NORAD_CAT_ID":67909,"ELEMENT_SET_NO":999,"REV_AT_EPOCH":254,"BSTAR":-0.0070071,"MEAN_MOTION_DOT":-0.01555719,"MEAN_MOTION_DDOT":0},{"OBJECT_NAME":"STARLINK-36847","OBJECT_ID":"2026-036G","EPOCH":"2026-03-02T20:00:01.999008","MEAN_MOTION":15.85972354,"ECCENTRICITY":0.0001859,"INCLINATION":42.9949,"RA_OF_ASC_NODE":291.7885,"ARG_OF_PERICENTER":269.7775,"MEAN_ANOMALY":124.9227,"EPHEMERIS_TYPE":0,"CLASSIFICATION_TYPE":"U","NORAD_CAT_ID":67910,"ELEMENT_SET_NO":999,"REV_AT_EPOCH":254,"BSTAR":-0.006894,"MEAN_MOTION_DOT":-0.01545072,"MEAN_MOTION_DDOT":0},{"OBJECT_NAME":"STARLINK-36736","OBJECT_ID":"2026-036H","EPOCH":"2026-03-02T20:00:01.999008","MEAN_MOTION":15.86150831,"ECCENTRICITY":0.0001719,"INCLINATION":42.9947,"RA_OF_ASC_NODE":291.7793,"ARG_OF_PERICENTER":277.7224,"MEAN_ANOMALY":120.5165,"EPHEMERIS_TYPE":0,"CLASSIFICATION_TYPE":"U","NORAD_CAT_ID":67911,"ELEMENT_SET_NO":999,"REV_AT_EPOCH":254,"BSTAR":-0.0068643,"MEAN_MOTION_DOT":-0.01551077,"MEAN_MOTION_DDOT":0},{"OBJECT_NAME":"STARLINK-36676","OBJECT_ID":"2026-036J","EPOCH":"2026-03-02T20:00:01.999008","MEAN_MOTION":15.86332353,"ECCENTRICITY":0.0001923,"INCLINATION":42.9949,"RA_OF_ASC_NODE":291.7711,"ARG_OF_PERICENTER":275.3184,"MEAN_ANOMALY":126.3401,"EPHEMERIS_TYPE":0,"CLASSIFICATION_TYPE":"U","NORAD_CAT_ID":67912,"ELEMENT_SET_NO":999,"REV_AT_EPOCH":254,"BSTAR":-0.0067473,"MEAN_MOTION_DOT":-0.01540083,"MEAN_MOTION_DDOT":0},{"OBJECT_NAME":"STARLINK-36690","OBJECT_ID":"2026-036K","EPOCH":"2026-03-02T20:00:01.999008","MEAN_MOTION":15.86487676,"ECCENTRICITY":0.0001833,"INCLINATION":42.9949,"RA_OF_ASC_NODE":291.7619,"ARG_OF_PERICENTER":273.9306,"MEAN_ANOMALY":131.3126,"EPHEMERIS_TYPE":0,"CLASSIFICATION_TYPE":"U","NORAD_CAT_ID":67913,"ELEMENT_SET_NO":999,"REV_AT_EPOCH":254,"BSTAR":-0.006694,"MEAN_MOTION_DOT":-0.01539701,"MEAN_MOTION_DDOT":0},{"OBJECT_NAME":"STARLINK-36724","OBJECT_ID":"2026-036L","EPOCH":"2026-03-02T20:00:01.999008","MEAN_MOTION":15.86826701,"ECCENTRICITY":0.0001808,"INCLINATION":42.9947,"RA_OF_ASC_NODE":291.744,"ARG_OF_PERICENTER":270.8208,"MEAN_ANOMALY":141.3175,"EPHEMERIS_TYPE":0,"CLASSIFICATION_TYPE":"U","NORAD_CAT_ID":67914,"ELEMENT_SET_NO":999,"REV_AT_EPOCH":254,"BSTAR":-0.0065758,"MEAN_MOTION_DOT":-0.01538386,"MEAN_MOTION_DDOT":0},{"OBJECT_NAME":"STARLINK-36723","OBJECT_ID":"2026-036M","EPOCH":"2026-03-02T20:00:01.999008","MEAN_MOTION":15.86646195,"ECCENTRICITY":0.000171,"INCLINATION":42.9949,"RA_OF_ASC_NODE":291.7529,"ARG_OF_PERICENTER":273.6317,"MEAN_ANOMALY":135.1815,"EPHEMERIS_TYPE":0,"CLASSIFICATION_TYPE":"U","NORAD_CAT_ID":67915,"ELEMENT_SET_NO":999,"REV_AT_EPOCH":254,"BSTAR":-0.0066729,"MEAN_MOTION_DOT":-0.01546018,"MEAN_MOTION_DDOT":0},{"OBJECT_NAME":"STARLINK-36721","OBJECT_ID":"2026-036N","EPOCH":"2026-03-02T20:00:01.999008","MEAN_MOTION":15.86974584,"ECCENTRICITY":0.000174,"INCLINATION":42.995,"RA_OF_ASC_NODE":291.7356,"ARG_OF_PERICENTER":278.2554,"MEAN_ANOMALY":137.4979,"EPHEMERIS_TYPE":0,"CLASSIFICATION_TYPE":"U","NORAD_CAT_ID":67916,"ELEMENT_SET_NO":999,"REV_AT_EPOCH":254,"BSTAR":-0.0066001,"MEAN_MOTION_DOT":-0.01553377,"MEAN_MOTION_DDOT":0},{"OBJECT_NAME":"STARLINK-36722","OBJECT_ID":"2026-036P","EPOCH":"2026-03-02T20:00:01.999008","MEAN_MOTION":15.87308869,"ECCENTRICITY":0.0002245,"INCLINATION":42.9949,"RA_OF_ASC_NODE":291.727,"ARG_OF_PERICENTER":270.048,"MEAN_ANOMALY":149.0598,"EPHEMERIS_TYPE":0,"CLASSIFICATION_TYPE":"U","NORAD_CAT_ID":67917,"ELEMENT_SET_NO":999,"REV_AT_EPOCH":254,"BSTAR":-0.0076852,"MEAN_MOTION_DOT":-0.01799088,"MEAN_MOTION_DDOT":0},{"OBJECT_NAME":"STARLINK-36341","OBJECT_ID":"2026-036Q","EPOCH":"2026-03-02T20:00:01.999008","MEAN_MOTION":15.87469974,"ECCENTRICITY":0.0001859,"INCLINATION":42.9949,"RA_OF_ASC_NODE":291.7098,"ARG_OF_PERICENTER":271.9344,"MEAN_ANOMALY":153.9339,"EPHEMERIS_TYPE":0,"CLASSIFICATION_TYPE":"U","NORAD_CAT_ID":67918,"ELEMENT_SET_NO":999,"REV_AT_EPOCH":254,"BSTAR":-0.0064002,"MEAN_MOTION_DOT":-0.01545353,"MEAN_MOTION_DDOT":0},{"OBJECT_NAME":"STARLINK-36663","OBJECT_ID":"2026-036R","EPOCH":"2026-03-02T20:00:01.999008","MEAN_MOTION":15.87305757,"ECCENTRICITY":0.0001836,"INCLINATION":42.995,"RA_OF_ASC_NODE":291.7186,"ARG_OF_PERICENTER":273.3204,"MEAN_ANOMALY":149.1866,"EPHEMERIS_TYPE":0,"CLASSIFICATION_TYPE":"U","NORAD_CAT_ID":67919,"ELEMENT_SET_NO":999,"REV_AT_EPOCH":254,"BSTAR":-0.0064544,"MEAN_MOTION_DOT":-0.01545597,"MEAN_MOTION_DDOT":0},{"OBJECT_NAME":"STARLINK-36375","OBJECT_ID":"2026-036S","EPOCH":"2026-03-02T20:00:01.999008","MEAN_MOTION":15.87623186,"ECCENTRICITY":0.0001831,"INCLINATION":42.995,"RA_OF_ASC_NODE":291.7014,"ARG_OF_PERICENTER":273.9125,"MEAN_ANOMALY":155.3988,"EPHEMERIS_TYPE":0,"CLASSIFICATION_TYPE":"U","NORAD_CAT_ID":67920,"ELEMENT_SET_NO":999,"REV_AT_EPOCH":254,"BSTAR":-0.006387,"MEAN_MOTION_DOT":-0.01552996,"MEAN_MOTION_DDOT":0},{"OBJECT_NAME":"STARLINK-36405","OBJECT_ID":"2026-036T","EPOCH":"2026-03-02T20:00:01.999008","MEAN_MOTION":15.87791247,"ECCENTRICITY":0.0001793,"INCLINATION":42.995,"RA_OF_ASC_NODE":291.6933,"ARG_OF_PERICENTER":274.7501,"MEAN_ANOMALY":157.7794,"EPHEMERIS_TYPE":0,"CLASSIFICATION_TYPE":"U","NORAD_CAT_ID":67921,"ELEMENT_SET_NO":999,"REV_AT_EPOCH":254,"BSTAR":-0.0063009,"MEAN_MOTION_DOT":-0.01545978,"MEAN_MOTION_DDOT":0},{"OBJECT_NAME":"STARLINK-36383","OBJECT_ID":"2026-036U","EPOCH":"2026-03-02T20:00:01.999008","MEAN_MOTION":15.87941634,"ECCENTRICITY":0.000178,"INCLINATION":42.9951,"RA_OF_ASC_NODE":291.6847,"ARG_OF_PERICENTER":274.5348,"MEAN_ANOMALY":161.4315,"EPHEMERIS_TYPE":0,"CLASSIFICATION_TYPE":"U","NORAD_CAT_ID":67922,"ELEMENT_SET_NO":999,"REV_AT_EPOCH":254,"BSTAR":-0.0062911,"MEAN_MOTION_DOT":-0.01554181,"MEAN_MOTION_DDOT":0},{"OBJECT_NAME":"STARLINK-36406","OBJECT_ID":"2026-036V","EPOCH":"2026-03-02T20:00:01.999008","MEAN_MOTION":15.8810233,"ECCENTRICITY":0.0001744,"INCLINATION":42.9951,"RA_OF_ASC_NODE":291.6765,"ARG_OF_PERICENTER":274.6233,"MEAN_ANOMALY":164.5927,"EPHEMERIS_TYPE":0,"CLASSIFICATION_TYPE":"U","NORAD_CAT_ID":67923,"ELEMENT_SET_NO":999,"REV_AT_EPOCH":254,"BSTAR":-0.0062311,"MEAN_MOTION_DOT":-0.01552143,"MEAN_MOTION_DDOT":0}]
